NORAD_CAT_ID,OBJECT_NAME,OBJECT_TYPE,EPOCH,MEAN_MOTION,ECCENTRICITY,INCLINATION,RA_OF_ASC_NODE,ARG_OF_PERICENTER,MEAN_ANOMALY,BSTAR,MEAN_MOTION_DOT,MEAN_MOTION_DDOT,TLE_LINE0,TLE_LINE1,TLE_LINE2,SEMIMAJOR_AXIS,PERIOD,APOGEE,PERIGEE,DECAYED
50180.0,STARLINK-3265,PAYLOAD,2023-06-27 23:01:33,15.08849112,9.65e-05,53.2181,354.2439,89.752,270.3582,0.00014032,1.947e-05,0.0,0 STARLINK-3265,1 50180U 21125AA  23178.95941373  .00001947  00000-0  14032-3 0  9991,2 50180  53.2181 354.2439 0000965  89.7520 270.3582 15.08849112 84702,6917.853,95.437,540.385,539.05,0.0
50180.0,STARLINK-3265,PAYLOAD,2023-06-28 18:06:11,15.0884195,0.0001019,53.218,350.6747,95.0934,265.0175,5.9679e-05,6.62e-06,0.0,0 STARLINK-3265,1 50180U 21125AA  23179.75429996  .00000662  00000-0  59679-4 0  9992,2 50180  53.2180 350.6747 0001019  95.0934 265.0175 15.08841950 84827,6917.874,95.437,540.444,539.034,0.0
50180.0,STARLINK-3265,PAYLOAD,2023-06-30 16:12:22,15.08840279,0.000106,53.2186,342.0533,92.1953,267.9161,1.3822e-06,-2.66e-06,0.0,0 STARLINK-3265,1 50180U 21125AA  23181.67526323 -.00000266  00000-0  13822-5 0  9990,2 50180  53.2186 342.0533 0001060  92.1953 267.9161 15.08840279 85118,6917.88,95.438,540.478,539.011,0.0
50180.0,STARLINK-3265,PAYLOAD,2023-07-01 17:38:33,15.08837413,0.0001009,53.2182,337.296,105.3803,254.7301,4.4971e-05,4.28e-06,0.0,0 STARLINK-3265,1 50180U 21125AA  23182.73510549  .00000428  00000-0  44971-4 0  9998,2 50180  53.2182 337.2960 0001009 105.3803 254.7301 15.08837413 85271,6917.888,95.438,540.451,539.055,0.0
50180.0,STARLINK-3265,PAYLOAD,2023-07-03 09:23:11,15.08839595,9.83e-05,53.2178,329.8607,89.7353,270.3752,0.00010027,1.308e-05,0.0,0 STARLINK-3265,1 50180U 21125AA  23184.39110505  .00001308  00000-0  10027-3 0  9992,2 50180  53.2178 329.8607 0000983  89.7353 270.3752 15.08839595 85521,6917.882,95.438,540.427,539.067,0.0
50180.0,STARLINK-3265,PAYLOAD,2023-07-03 17:20:06,15.088487,9.3e-05,53.218,328.3742,86.3719,273.738,9.5624e-05,1.235e-05,0.0,0 STARLINK-3265,1 50180U 21125AA  23184.72229902  .00001235  00000-0  95624-4 0  9997,2 50180  53.2180 328.3742 0000930  86.3719 273.7380 15.08848700 85576,6917.854,95.437,540.362,539.075,0.0
50180.0,STARLINK-3265,PAYLOAD,2023-07-04 15:35:31,15.08843601,9.11e-05,53.2182,324.2119,99.9163,260.1932,-1.5998e-05,-5.42e-06,0.0,0 STARLINK-3265,1 50180U 21125AA  23185.64966493 -.00000542  00000-0 -15998-4 0  9990,2 50180  53.2182 324.2119 0000911  99.9163 260.1932 15.08843601 85717,6917.869,95.437,540.365,539.104,0.0
50180.0,STARLINK-3265,PAYLOAD,2023-07-05 17:01:41,15.08841945,9.98e-05,53.2185,319.4508,89.0204,271.0902,-5.46e-05,-1.157e-05,0.0,0 STARLINK-3265,1 50180U 21125AA  23186.70950740 -.00001157  00000-0 -54600-4 0  9992,2 50180  53.2185 319.4508 0000998  89.0204 271.0902 15.08841945 85873,6917.874,95.437,540.43,539.049,0.0
50180.0,STARLINK-3265,PAYLOAD,2023-07-06 15:17:04,15.08848672,9.26e-05,53.2182,315.2902,78.2639,281.8457,4.865e-05,4.87e-06,0.0,0 STARLINK-3265,1 50180U 21125AA  23187.63686096  .00000487  00000-0  48650-4 0  9996,2 50180  53.2182 315.2902 0000926  78.2639 281.8457 15.08848672 86010,6917.854,95.437,540.359,539.078,0.0
50180.0,STARLINK-3265,PAYLOAD,2023-07-07 08:46:19,15.08836323,0.0001019,53.2177,312.019,83.5962,276.5146,6.4597e-05,7.4e-06,0.0,0 STARLINK-3265,1 50180U 21125AA  23188.36550882  .00000740  00000-0  64597-4 0  9990,2 50180  53.2177 312.0190 0001019  83.5962 276.5146 15.08836323 86128,6917.892,95.438,540.462,539.052,0.0
50180.0,STARLINK-3265,PAYLOAD,2023-07-07 16:43:14,15.08847157,9.29e-05,53.2176,310.5326,76.5583,283.5513,0.00013754,1.902e-05,0.0,0 STARLINK-3265,1 50180U 21125AA  23188.69670084  .00001902  00000-0  13754-3 0  9992,2 50180  53.2176 310.5326 0000929  76.5583 283.5513 15.08847157 86179,6917.859,95.437,540.366,539.081,0.0
50180.0,STARLINK-3265,PAYLOAD,2023-07-08 00:40:11,15.08838834,0.0001066,53.2178,309.0452,77.7843,282.3269,5.703e-05,6.2e-06,0.0,0 STARLINK-3265,1 50180U 21125AA  23189.02790827  .00000620  00000-0  57030-4 0  9990,2 50180  53.2178 309.0452 0001066  77.7843 282.3269 15.08838834 86222,6917.884,95.438,540.486,539.012,0.0
50180.0,STARLINK-3265,PAYLOAD,2023-07-09 00:30:58,15.0883451,0.0001202,53.2182,304.5848,73.5161,286.5963,-8.2805e-05,-1.605e-05,0.0,0 STARLINK-3265,1 50180U 21125AA  23190.02151568 -.00001605  00000-0 -82805-4 0  9999,2 50180  53.2182 304.5848 0001202  73.5161 286.5963 15.08834510 86375,6917.897,95.438,540.594,538.931,0.0
50180.0,STARLINK-3265,PAYLOAD,2023-07-10 09:54:04,15.08841063,9.15e-05,53.2179,298.3413,95.0265,265.0832,0.00013683,1.891e-05,0.0,0 STARLINK-3265,1 50180U 21125AA  23191.41255101  .00001891  00000-0  13683-3 0  9993,2 50180  53.2179 298.3413 0000915  95.0265 265.0832 15.08841063 86584,6917.877,95.437,540.375,539.109,0.0
50180.0,STARLINK-3265,PAYLOAD,2023-07-11 06:34:05,15.08835399,9.65e-05,53.2178,294.4763,88.061,272.0493,0.00015255,2.141e-05,0.0,0 STARLINK-3265,1 50180U 21125AA  23192.27367600  .00002141  00000-0  15255-3 0  9992,2 50180  53.2178 294.4763 0000965  88.0610 272.0493 15.08835399 86710,6917.894,95.438,540.427,539.092,0.0
50180.0,STARLINK-3265,PAYLOAD,2023-07-12 12:46:24,15.08846755,0.0001016,53.2176,288.8266,86.4693,273.6415,6.695e-05,7.78e-06,0.0,0 STARLINK-3265,1 50180U 21125AA  23193.53223042  .00000778  00000-0  66950-4 0  9996,2 50180  53.2176 288.8266 0001016  86.4693 273.6415 15.08846755 86904,6917.86,95.437,540.428,539.022,0.0
50180.0,STARLINK-3265,PAYLOAD,2023-07-13 15:47:58,15.08841086,0.0001064,53.2174,283.7699,100.8673,259.2439,4.3467e-06,-2.19e-06,0.0,0 STARLINK-3265,1 50180U 21125AA  23194.65831353 -.00000219  00000-0  43467-5 0  9990,2 50180  53.2174 283.7699 0001064 100.8673 259.2439 15.08841086 87075,6917.877,95.437,540.478,539.006,0.0
50180.0,STARLINK-3265,PAYLOAD,2023-07-15 12:18:46,15.08842252,0.000103,53.2173,275.442,100.9589,259.1519,9.6131e-05,1.243e-05,0.0,0 STARLINK-3265,1 50180U 21125AA  23196.51303260  .00001243  00000-0  96131-4 0  9990,2 50180  53.2173 275.4420 0001030 100.9589 259.1519 15.08842252 87359,6917.874,95.437,540.451,539.026,0.0
50180.0,STARLINK-3265,PAYLOAD,2023-07-16 04:12:38,15.08830516,0.0001037,53.2165,272.4709,86.7808,273.3303,1.6096e-05,-3.2e-07,0.0,0 STARLINK-3265,1 50180U 21125AA  23197.17544449 -.00000032  00000-0  16096-4 0  9997,2 50180  53.2165 272.4709 0001037  86.7808 273.3303 15.08830516 87459,6917.909,95.438,540.492,539.057,0.0
50180.0,STARLINK-3265,PAYLOAD,2023-07-16 23:17:15,15.08836867,0.0001011,53.2171,268.903,91.6156,268.4951,3.2093e-05,2.23e-06,0.0,0 STARLINK-3265,1 50180U 21125AA  23197.97032280  .00000223  00000-0  32093-4 0  9996,2 50180  53.2171 268.9030 0001011  91.6156 268.4951 15.08836867 87578,6917.89,95.438,540.454,539.056,0.0
50180.0,STARLINK-3265,PAYLOAD,2023-07-17 10:24:57,15.08844515,0.0001202,53.2167,266.8212,100.7491,259.3637,9.7788e-05,1.269e-05,0.0,0 STARLINK-3265,1 50180U 21125AA  23198.43399621  .00001269  00000-0  97788-4 0  9996,2 50180  53.2167 266.8212 0001202 100.7491 259.3637 15.08844515 87645,6917.867,95.437,540.563,538.9,0.0
50180.0,STARLINK-3265,PAYLOAD,2023-07-17 23:08:05,15.08762278,0.0001369,53.2168,264.4424,113.691,246.4226,0.0012657,0.0001987,0.0,0 STARLINK-3265,1 50180U 21125AA  23198.96394681  .00019870  00000-0  12657-2 0  9992,2 50180  53.2168 264.4424 0001369 113.6910 246.4226 15.08762278 87723,6918.118,95.442,540.93,539.036,0.0
50180.0,STARLINK-3265,PAYLOAD,2023-07-18 10:15:44,15.08837857,0.0001072,53.2168,262.3607,89.7789,270.3326,0.00011709,1.576e-05,0.0,0 STARLINK-3265,1 50180U 21125AA  23199.42760100  .00001576  00000-0  11709-3 0  9999,2 50180  53.2168 262.3607 0001072  89.7789 270.3326 15.08837857 87791,6917.887,95.438,540.494,539.01,0.0
50180.0,STARLINK-3265,PAYLOAD,2023-07-19 10:06:32,15.08834393,0.0001127,53.2165,257.9009,85.1372,274.9749,-3.9966e-05,-9.24e-06,0.0,0 STARLINK-3265,1 50180U 21125AA  23200.42120905 -.00000924  00000-0 -39966-4 0  9999,2 50180  53.2165 257.9009 0001127  85.1372 274.9749 15.08834393 87941,6917.898,95.438,540.542,538.983,0.0
50180.0,STARLINK-3265,PAYLOAD,2023-07-20 09:57:19,15.08837985,0.000111,53.2163,253.4399,86.3778,273.7341,4.0034e-05,3.49e-06,0.0,0 STARLINK-3265,1 50180U 21125AA  23201.41480535  .00000349  00000-0  40034-4 0  9994,2 50180  53.2163 253.4399 0001110  86.3778 273.7341 15.08837985 88099,6917.887,95.438,540.519,538.984,0.0
50180.0,STARLINK-3265,PAYLOAD,2023-07-21 14:34:14,15.08845189,0.0001045,53.2162,248.0869,90.3063,269.8049,0.00012474,1.698e-05,0.0,0 STARLINK-3265,1 50180U 21125AA  23202.60711736  .00001698  00000-0  12474-3 0  9990,2 50180  53.2162 248.0869 0001045  90.3063 269.8049 15.08845189 88275,6917.865,95.437,540.452,539.007,0.0
50180.0,STARLINK-3265,PAYLOAD,2023-07-24 12:31:15,15.08822631,9.36e-05,53.2157,235.0045,106.3585,253.751,-8.3551e-05,-1.616e-05,0.0,0 STARLINK-3265,1 50180U 21125AA  23205.52171095 -.00001616  00000-0 -83551-4 0  9999,2 50180  53.2157 235.0045 0000936 106.3585 253.7510 15.08822631 91845,6917.933,95.439,540.446,539.151,0.0
50180.0,STARLINK-3265,PAYLOAD,2023-07-25 10:46:39,15.0882969,0.0001154,53.2159,230.8384,80.442,279.6702,0.00024064,3.543e-05,0.0,0 STARLINK-3265,1 50180U 21125AA  23206.44906524  .00003543  00000-0  24064-3 0  9996,2 50180  53.2159 230.8384 0001154  80.4420 279.6702 15.08829690 91986,6917.912,95.438,540.575,538.979,0.0
50180.0,STARLINK-3265,PAYLOAD,2023-07-26 10:37:25,15.08847077,0.0001234,53.2152,226.3791,76.5006,283.6124,0.00020586,2.991e-05,0.0,0 STARLINK-3265,1 50180U 21125AA  23207.44265954  .00002991  00000-0  20586-3 0  9993,2 50180  53.2152 226.3791 0001234  76.5006 283.6124 15.08847077 92136,6917.859,95.437,540.577,538.87,0.0
50180.0,STARLINK-3265,PAYLOAD,2023-07-27 07:17:25,15.08856507,0.0001154,53.2154,222.5129,80.2073,279.9049,0.00010802,1.432e-05,0.0,0 STARLINK-3265,1 50180U 21125AA  23208.30377025  .00001432  00000-0  10802-3 0  9991,2 50180  53.2154 222.5129 0001154  80.2073 279.9049 15.08856507 89136,6917.83,95.437,540.493,538.897,0.0
